NORAD_CAT_ID,OBJECT_NAME,OBJECT_TYPE,EPOCH,MEAN_MOTION,ECCENTRICITY,INCLINATION,RA_OF_ASC_NODE,ARG_OF_PERICENTER,MEAN_ANOMALY,BSTAR,MEAN_MOTION_DOT,MEAN_MOTION_DDOT,TLE_LINE0,TLE_LINE1,TLE_LINE2,SEMIMAJOR_AXIS,PERIOD,APOGEE,PERIGEE,DECAYED
51756.0,STARLINK-3513,PAYLOAD,2024-01-07 02:26:20,15.08844789,0.0001564,53.216,267.1871,97.667,262.45,4.2922e-06,-2.2e-06,0.0,0 STARLINK-3513,1 51756U 22016AU  24007.10162968 -.00000220  00000-0  42922-5 0  9990,2 51756  53.2160 267.1871 0001564  97.6670 262.4500 15.08844789104059,6917.866,95.437,540.813,538.649,0.0
51756.0,STARLINK-3513,PAYLOAD,2024-01-07 21:30:58,15.08837565,0.000169,53.2164,263.6187,92.9748,267.1437,5.1763e-05,5.36e-06,0.0,0 STARLINK-3513,1 51756U 22016AU  24007.89651583  .00000536  00000-0  51763-4 0  9993,2 51756  53.2164 263.6187 0001690  92.9748 267.1437 15.08837565104176,6917.888,95.438,540.922,538.584,0.0
51756.0,STARLINK-3513,PAYLOAD,2024-01-08 00:41:45,15.08839158,0.0001751,53.2166,263.0247,93.0188,267.1005,7.4304e-05,8.95e-06,0.0,0 STARLINK-3513,1 51756U 22016AU  24008.02899457  .00000895  00000-0  74304-4 0  9997,2 51756  53.2166 263.0247 0001751  93.0188 267.1005 15.08839158105269,6917.883,95.438,540.959,538.537,0.0
51756.0,STARLINK-3513,PAYLOAD,2024-01-08 21:21:46,15.08827634,0.0001864,53.2171,259.1629,69.5788,290.5404,0.00024414,3.598e-05,0.0,0 STARLINK-3513,1 51756U 22016AU  24008.89011770  .00003598  00000-0  24414-3 0  9995,2 51756  53.2171 259.1629 0001864  69.5788 290.5404 15.08827634104329,6917.918,95.438,541.073,538.494,0.0
51756.0,STARLINK-3513,PAYLOAD,2024-01-08 22:57:09,15.08843791,0.000186,53.2173,258.8639,72.1135,288.006,3.3283e-05,2.42e-06,0.0,0 STARLINK-3513,1 51756U 22016AU  24008.95635498  .00000242  00000-0  33283-4 0  9999,2 51756  53.2173 258.8639 0001860  72.1135 288.0060 15.08843791104333,6917.869,95.437,541.021,538.447,0.0
51756.0,STARLINK-3513,PAYLOAD,2024-01-09 19:37:09,15.08844322,0.0001629,53.2165,254.9976,85.3587,274.7591,5.7664e-05,6.3e-06,0.0,0 STARLINK-3513,1 51756U 22016AU  24009.81747195  .00000630  00000-0  57664-4 0  9993,2 51756  53.2165 254.9976 0001629  85.3587 274.7591 15.08844322105530,6917.867,95.437,540.859,538.605,0.0
51756.0,STARLINK-3513,PAYLOAD,2024-01-09 22:47:55,15.08845947,0.000157,53.2162,254.402,88.4504,271.6668,6.7414e-05,7.85e-06,0.0,0 STARLINK-3513,1 51756U 22016AU  24009.94994990  .00000785  00000-0  67414-4 0  9999,2 51756  53.2162 254.4020 0001570  88.4504 271.6668 15.08845947104488,6917.862,95.437,540.813,538.641,0.0
51756.0,STARLINK-3513,PAYLOAD,2024-01-10 19:27:57,15.08813787,0.0001389,53.2156,250.5364,105.8851,254.2295,0.00035009,5.284e-05,0.0,0 STARLINK-3513,1 51756U 22016AU  24010.81107653  .00005284  00000-0  35009-3 0  9992,2 51756  53.2156 250.5364 0001389 105.8851 254.2295 15.08813787105689,6917.961,95.439,540.786,538.865,0.0
51756.0,STARLINK-3513,PAYLOAD,2024-01-10 22:38:42,15.08843011,0.0001536,53.2161,249.9413,90.1595,269.9574,9.353e-06,-1.39e-06,0.0,0 STARLINK-3513,1 51756U 22016AU  24010.94355309 -.00000139  00000-0  93530-5 0  9999,2 51756  53.2161 249.9413 0001536  90.1595 269.9574 15.08843011105706,6917.871,95.437,540.799,538.674,0.0
51756.0,STARLINK-3513,PAYLOAD,2024-01-11 20:54:06,15.08842807,0.0001514,53.2162,245.7773,97.2832,262.8332,4.3765e-05,4.09e-06,0.0,0 STARLINK-3513,1 51756U 22016AU  24011.87091176  .00000409  00000-0  43765-4 0  9994,2 51756  53.2162 245.7773 0001514  97.2832 262.8332 15.08842807104770,6917.872,95.437,540.784,538.689,0.0
51756.0,STARLINK-3513,PAYLOAD,2024-01-12 01:40:15,15.08845432,0.0001529,53.2161,244.8847,97.7243,262.3923,4.9059e-05,4.93e-06,0.0,0 STARLINK-3513,1 51756U 22016AU  24012.06962956  .00000493  00000-0  49059-4 0  9994,2 51756  53.2161 244.8847 0001529  97.7243 262.3923 15.08845432105878,6917.864,95.437,540.787,538.671,0.0
51756.0,STARLINK-3513,PAYLOAD,2024-01-12 19:09:31,15.08832063,0.0001489,53.2173,241.611,99.0874,261.0286,-2.6256e-05,-7.06e-06,0.0,0 STARLINK-3513,1 51756U 22016AU  24012.79828322 -.00000706  00000-0 -26256-4 0  9995,2 51756  53.2173 241.6110 0001489  99.0874 261.0286 15.08832063105985,6917.905,95.438,540.8,538.74,0.0
51756.0,STARLINK-3513,PAYLOAD,2024-01-12 22:20:18,15.08832187,0.0001521,53.2171,241.0168,95.4301,264.6865,-7.6581e-05,-1.506e-05,0.0,0 STARLINK-3513,1 51756U 22016AU  24012.93076524 -.00001506  00000-0 -76581-4 0  9995,2 51756  53.2171 241.0168 0001521  95.4301 264.6865 15.08832187104935,6917.904,95.438,540.821,538.717,0.0
51756.0,STARLINK-3513,PAYLOAD,2024-01-13 01:31:04,15.08828543,0.0001536,53.2172,240.4223,98.8956,261.221,-3.8804e-05,-9.05e-06,0.0,0 STARLINK-3513,1 51756U 22016AU  24013.06324718 -.00000905  00000-0 -38804-4 0  9999,2 51756  53.2172 240.4223 0001536  98.8956 261.2210 15.08828543104950,6917.915,95.438,540.843,538.718,0.0
51756.0,STARLINK-3513,PAYLOAD,2024-01-13 19:00:18,15.08841665,0.0001425,53.217,237.1547,73.1162,286.9986,6.3907e-05,7.29e-06,0.0,0 STARLINK-3513,1 51756U 22016AU  24013.79187892  .00000729  00000-0  63907-4 0  9993,2 51756  53.2170 237.1547 0001425  73.1162 286.9986 15.08841665106138,6917.875,95.437,540.726,538.755,0.0
51756.0,STARLINK-3513,PAYLOAD,2024-01-13 23:46:27,15.08847866,0.0001428,53.2167,236.262,82.0571,278.0583,0.00011676,1.571e-05,0.0,0 STARLINK-3513,1 51756U 22016AU  24013.99059322  .00001571  00000-0  11676-3 0  9992,2 51756  53.2167 236.2620 0001428  82.0571 278.0583 15.08847866106169,6917.856,95.437,540.709,538.733,0.0
51756.0,STARLINK-3513,PAYLOAD,2024-01-14 18:51:05,15.08836912,0.0001801,53.2176,232.6899,107.9052,252.2136,0.00010123,1.323e-05,0.0,0 STARLINK-3513,1 51756U 22016AU  24014.78548083  .00001323  00000-0  10123-3 0  9998,2 51756  53.2176 232.6899 0001801 107.9052 252.2136 15.08836912106284,6917.89,95.438,541.001,538.509,0.0
51756.0,STARLINK-3513,PAYLOAD,2024-01-14 20:26:28,15.08836168,0.0001635,53.2175,232.3924,95.7019,264.4159,0.00011648,1.566e-05,0.0,0 STARLINK-3513,1 51756U 22016AU  24014.85172129  .00001566  00000-0  11648-3 0  9992,2 51756  53.2175 232.3924 0001635  95.7019 264.4159 15.08836168105227,6917.892,95.438,540.888,538.626,0.0
51756.0,STARLINK-3513,PAYLOAD,2024-01-14 23:37:14,15.08839626,0.0001572,53.2175,231.797,84.2046,275.9125,0.00012991,1.78e-05,0.0,0 STARLINK-3513,1 51756U 22016AU  24014.98419912  .00001780  00000-0  12991-3 0  9990,2 51756  53.2175 231.7970 0001572  84.2046 275.9125 15.08839626105248,6917.882,95.438,540.834,538.659,0.0
51756.0,STARLINK-3513,PAYLOAD,2024-01-15 20:17:15,15.0884665,0.000152,53.2179,227.9231,88.3888,271.7278,-7.2917e-05,-1.449e-05,0.0,0 STARLINK-3513,1 51756U 22016AU  24015.84531989 -.00001449  00000-0 -72917-4 0  9994,2 51756  53.2179 227.9231 0001520  88.3888 271.7278 15.08846650105373,6917.86,95.437,540.777,538.674,0.0
51756.0,STARLINK-3513,PAYLOAD,2024-01-16 13:46:30,15.08839524,0.0001788,53.2175,224.6608,123.4381,236.6782,4.3181e-05,3.99e-06,0.0,0 STARLINK-3513,1 51756U 22016AU  24016.57395889  .00000399  00000-0  43181-4 0  9994,2 51756  53.2175 224.6608 0001788 123.4381 236.6782 15.08839524105480,6917.882,95.438,540.984,538.51,0.0
51756.0,STARLINK-3513,PAYLOAD,2024-01-16 20:08:02,15.08843482,0.0001773,53.2182,223.4747,113.2827,246.8352,6.4444e-05,7.38e-06,0.0,0 STARLINK-3513,1 51756U 22016AU  24016.83891637  .00000738  00000-0  64444-4 0  9997,2 51756  53.2182 223.4747 0001773 113.2827 246.8352 15.08843482105524,6917.87,95.437,540.961,538.508,0.0
51756.0,STARLINK-3513,PAYLOAD,2024-01-17 19:58:50,15.08837793,0.0001304,53.2156,219.0155,78.4929,281.621,2.9292e-05,1.78e-06,0.0,0 STARLINK-3513,1 51756U 22016AU  24017.83252321  .00000178  00000-0  29292-4 0  9999,2 51756  53.2156 219.0155 0001304  78.4929 281.6210 15.08837793106747,6917.887,95.438,540.654,538.85,0.0
51756.0,STARLINK-3513,PAYLOAD,2024-01-18 13:28:04,15.08838713,0.0001311,53.2156,215.7444,75.5104,284.6034,2.2319e-05,6.7e-07,0.0,0 STARLINK-3513,1 51756U 22016AU  24018.56116383  .00000067  00000-0  22319-4 0  9997,2 51756  53.2156 215.7444 0001311  75.5104 284.6034 15.08838713105785,6917.884,95.438,540.656,538.842,0.0
51756.0,STARLINK-3513,PAYLOAD,2024-01-18 19:49:36,15.08840699,0.0001271,53.2156,214.554,83.4014,276.7123,2.9729e-05,1.85e-06,0.0,0 STARLINK-3513,1 51756U 22016AU  24018.82612195  .00000185  00000-0  29729-4 0  9991,2 51756  53.2156 214.5540 0001271  83.4014 276.7123 15.08840699105824,6917.878,95.438,540.623,538.864,0.0
51756.0,STARLINK-3513,PAYLOAD,2024-01-18 23:00:23,15.08841281,0.000127,53.2156,213.959,85.5689,274.5448,3.1473e-05,2.13e-06,0.0,0 STARLINK-3513,1 51756U 22016AU  24018.95860123  .00000213  00000-0  31473-4 0  9992,2 51756  53.2156 213.9590 0001270  85.5689 274.5448 15.08841281106917,6917.876,95.437,540.62,538.863,0.0
51756.0,STARLINK-3513,PAYLOAD,2024-01-19 13:18:51,15.08836698,0.0001281,53.2159,211.2816,88.5154,271.5985,5.2476e-05,5.47e-06,0.0,0 STARLINK-3513,1 51756U 22016AU  24019.55476406  .00000547  00000-0  52476-4 0  9992,2 51756  53.2159 211.2816 0001281  88.5154 271.5985 15.08836698105934,6917.89,95.438,540.642,538.869,0.0
51756.0,STARLINK-3513,PAYLOAD,2024-01-19 22:51:10,15.08837923,0.0001285,53.216,209.4973,88.6378,271.4761,5.5768e-05,6e-06,0.0,0 STARLINK-3513,1 51756U 22016AU  24019.95220370  .00000600  00000-0  55768-4 0  9990,2 51756  53.2160 209.4973 0001285  88.6378 271.4761 15.08837923105991,6917.887,95.438,540.641,538.863,0.0
51756.0,STARLINK-3513,PAYLOAD,2024-01-20 13:09:39,15.08829587,0.0001331,53.2162,206.8199,91.3597,268.7548,-3.5287e-05,-8.49e-06,0.0,0 STARLINK-3513,1 51756U 22016AU  24020.54837497 -.00000849  00000-0 -35287-4 0  9992,2 51756  53.2162 206.8199 0001331  91.3597 268.7548 15.08829587106080,6917.912,95.438,540.698,538.856,0.0
51756.0,STARLINK-3513,PAYLOAD,2024-01-20 17:55:49,15.0883048,0.0001345,53.2162,205.9278,92.0044,268.1102,-2.746e-05,-7.25e-06,0.0,0 STARLINK-3513,1 51756U 22016AU  24020.74709511 -.00000725  00000-0 -27460-4 0  9996,2 51756  53.2162 205.9278 0001345  92.0044 268.1102 15.08830480107184,6917.909,95.438,540.705,538.844,0.0
